[{"OBJECT_NAME":"ETIHAD-SAT","OBJECT_ID":"2025-052S","EPOCH":"2026-03-09T16:03:28.707264","MEAN_MOTION":15.21246201,"ECCENTRICITY":0.00067443,"INCLINATION":97.4075,"RA_OF_ASC_NODE":322.8388,"ARG_OF_PERICENTER":120.6163,"MEAN_ANOMALY":239.5739,"EPHEMERIS_TYPE":0,"CLASSIFICATION_TYPE":"U","NORAD_CAT_ID":63226,"ELEMENT_SET_NO":999,"REV_AT_EPOCH":5470,"BSTAR":0.00038811178,"MEAN_MOTION_DOT":8.608e-5,"MEAN_MOTION_DDOT":0},{"OBJECT_NAME":"OBJECT D","OBJECT_ID":"2025-234D","EPOCH":"2026-03-09T21:45:39.162528","MEAN_MOTION":15.22662806,"ECCENTRICITY":0.00034878,"INCLINATION":97.4338,"RA_OF_ASC_NODE":138.0864,"ARG_OF_PERICENTER":166.6055,"MEAN_ANOMALY":193.5275,"EPHEMERIS_TYPE":0,"CLASSIFICATION_TYPE":"U","NORAD_CAT_ID":66056,"ELEMENT_SET_NO":999,"REV_AT_EPOCH":2155,"BSTAR":0.00081390028,"MEAN_MOTION_DOT":0.00018914,"MEAN_MOTION_DDOT":0}]
